[{"OBJECT_NAME":"FLYING LAPTOP","OBJECT_ID":"2017-042G","EPOCH":"2026-04-25T20:28:24.582720","MEAN_MOTION":15.00808344,"ECCENTRICITY":0.0018205,"INCLINATION":97.4455,"RA_OF_ASC_NODE":273.4871,"ARG_OF_PERICENTER":304.0734,"MEAN_ANOMALY":55.8762,"EPHEMERIS_TYPE":0,"CLASSIFICATION_TYPE":"U","NORAD_CAT_ID":42831,"ELEMENT_SET_NO":999,"REV_AT_EPOCH":47860,"BSTAR":0.00022978,"MEAN_MOTION_DOT":2.87e-5,"MEAN_MOTION_DDOT":0},{"OBJECT_NAME":"HAWK-A","OBJECT_ID":"2018-099H","EPOCH":"2026-04-25T16:48:19.143648","MEAN_MOTION":15.23942854,"ECCENTRICITY":0.0037068,"INCLINATION":97.3965,"RA_OF_ASC_NODE":168.6348,"ARG_OF_PERICENTER":109.8643,"MEAN_ANOMALY":250.6595,"EPHEMERIS_TYPE":0,"CLASSIFICATION_TYPE":"U","NORAD_CAT_ID":43765,"ELEMENT_SET_NO":999,"REV_AT_EPOCH":40510,"BSTAR":0.00031515,"MEAN_MOTION_DOT":7.697e-5,"MEAN_MOTION_DDOT":0},{"OBJECT_NAME":"HAWK-B","OBJECT_ID":"2018-099AN","EPOCH":"2026-04-25T15:50:14.682624","MEAN_MOTION":15.22174947,"ECCENTRICITY":0.0033981,"INCLINATION":97.4013,"RA_OF_ASC_NODE":168.118,"ARG_OF_PERICENTER":126.5669,"MEAN_ANOMALY":233.8703,"EPHEMERIS_TYPE":0,"CLASSIFICATION_TYPE":"U","NORAD_CAT_ID":43794,"ELEMENT_SET_NO":999,"REV_AT_EPOCH":40504,"BSTAR":0.00028213,"MEAN_MOTION_DOT":6.507e-5,"MEAN_MOTION_DDOT":0},{"OBJECT_NAME":"HAWK-C","OBJECT_ID":"2018-099AT","EPOCH":"2026-04-25T15:53:33.527904","MEAN_MOTION":15.27257797,"ECCENTRICITY":0.004294,"INCLINATION":97.3942,"RA_OF_ASC_NODE":169.257,"ARG_OF_PERICENTER":111.0387,"MEAN_ANOMALY":249.5452,"EPHEMERIS_TYPE":0,"CLASSIFICATION_TYPE":"U","NORAD_CAT_ID":43799,"ELEMENT_SET_NO":999,"REV_AT_EPOCH":40589,"BSTAR":0.00032604,"MEAN_MOTION_DOT":8.872e-5,"MEAN_MOTION_DDOT":0},{"OBJECT_NAME":"SALSAT","OBJECT_ID":"2020-068K","EPOCH":"2026-04-25T17:43:34.869792","MEAN_MOTION":15.29000493,"ECCENTRICITY":0.001152,"INCLINATION":97.8866,"RA_OF_ASC_NODE":115.6436,"ARG_OF_PERICENTER":121.8273,"MEAN_ANOMALY":238.4089,"EPHEMERIS_TYPE":0,"CLASSIFICATION_TYPE":"U","NORAD_CAT_ID":46495,"ELEMENT_SET_NO":999,"REV_AT_EPOCH":30734,"BSTAR":0.00030336,"MEAN_MOTION_DOT":8.478e-5,"MEAN_MOTION_DDOT":0},{"OBJECT_NAME":"HAWK-2C","OBJECT_ID":"2021-006CT","EPOCH":"2026-04-25T15:39:29.907072","MEAN_MOTION":15.34014927,"ECCENTRICITY":0.0007807,"INCLINATION":97.2332,"RA_OF_ASC_NODE":161.0225,"ARG_OF_PERICENTER":42.4509,"MEAN_ANOMALY":317.7336,"EPHEMERIS_TYPE":0,"CLASSIFICATION_TYPE":"U","NORAD_CAT_ID":47502,"ELEMENT_SET_NO":999,"REV_AT_EPOCH":29144,"BSTAR":0.00019847,"MEAN_MOTION_DOT":6.46e-5,"MEAN_MOTION_DDOT":0},{"OBJECT_NAME":"HAWK-2A","OBJECT_ID":"2021-006CW","EPOCH":"2026-04-25T15:43:45.541344","MEAN_MOTION":15.34027267,"ECCENTRICITY":0.0007497,"INCLINATION":97.2375,"RA_OF_ASC_NODE":161.6722,"ARG_OF_PERICENTER":46.4014,"MEAN_ANOMALY":313.785,"EPHEMERIS_TYPE":0,"CLASSIFICATION_TYPE":"U","NORAD_CAT_ID":47505,"ELEMENT_SET_NO":999,"REV_AT_EPOCH":29144,"BSTAR":0.000199,"MEAN_MOTION_DOT":6.479e-5,"MEAN_MOTION_DDOT":0},{"OBJECT_NAME":"HAWK-2B","OBJECT_ID":"2021-006CZ","EPOCH":"2026-04-25T15:39:33.240384","MEAN_MOTION":15.3402993,"ECCENTRICITY":0.0007959,"INCLINATION":97.2247,"RA_OF_ASC_NODE":160.0876,"ARG_OF_PERICENTER":43.5958,"MEAN_ANOMALY":316.5913,"EPHEMERIS_TYPE":0,"CLASSIFICATION_TYPE":"U","NORAD_CAT_ID":47508,"ELEMENT_SET_NO":999,"REV_AT_EPOCH":29144,"BSTAR":0.0002254,"MEAN_MOTION_DOT":7.351e-5,"MEAN_MOTION_DDOT":0},{"OBJECT_NAME":"HAWK-3B","OBJECT_ID":"2021-059BE","EPOCH":"2026-04-25T12:38:13.765344","MEAN_MOTION":15.65350301,"ECCENTRICITY":0.0005975,"INCLINATION":97.6712,"RA_OF_ASC_NODE":307.4247,"ARG_OF_PERICENTER":156.6043,"MEAN_ANOMALY":203.5489,"EPHEMERIS_TYPE":0,"CLASSIFICATION_TYPE":"U","NORAD_CAT_ID":48931,"ELEMENT_SET_NO":999,"REV_AT_EPOCH":26960,"BSTAR":0.00053699,"MEAN_MOTION_DOT":0.00053561,"MEAN_MOTION_DDOT":0},{"OBJECT_NAME":"HAWK-3C","OBJECT_ID":"2021-059BX","EPOCH":"2026-04-25T14:09:47.911104","MEAN_MOTION":15.65350352,"ECCENTRICITY":0.0006439,"INCLINATION":97.684,"RA_OF_ASC_NODE":313.085,"ARG_OF_PERICENTER":154.1588,"MEAN_ANOMALY":205.9994,"EPHEMERIS_TYPE":0,"CLASSIFICATION_TYPE":"U","NORAD_CAT_ID":48948,"ELEMENT_SET_NO":999,"REV_AT_EPOCH":26961,"BSTAR":0.00043962,"MEAN_MOTION_DOT":0.00043782,"MEAN_MOTION_DDOT":0},{"OBJECT_NAME":"HAWK-3A","OBJECT_ID":"2021-059CG","EPOCH":"2026-04-25T12:37:34.285728","MEAN_MOTION":15.65353655,"ECCENTRICITY":0.0006115,"INCLINATION":97.6785,"RA_OF_ASC_NODE":310.2635,"ARG_OF_PERICENTER":155.4342,"MEAN_ANOMALY":204.7209,"EPHEMERIS_TYPE":0,"CLASSIFICATION_TYPE":"U","NORAD_CAT_ID":48957,"ELEMENT_SET_NO":999,"REV_AT_EPOCH":26960,"BSTAR":0.00046351,"MEAN_MOTION_DOT":0.00046182,"MEAN_MOTION_DDOT":0},{"OBJECT_NAME":"HAWK-5C","OBJECT_ID":"2022-057Y","EPOCH":"2026-04-25T16:49:53.323968","MEAN_MOTION":15.49458206,"ECCENTRICITY":0.0003701,"INCLINATION":97.6525,"RA_OF_ASC_NODE":272.0928,"ARG_OF_PERICENTER":248.0141,"MEAN_ANOMALY":112.0716,"EPHEMERIS_TYPE":0,"CLASSIFICATION_TYPE":"U","NORAD_CAT_ID":52754,"ELEMENT_SET_NO":999,"REV_AT_EPOCH":21821,"BSTAR":0.00034498,"MEAN_MOTION_DOT":0.00018892,"MEAN_MOTION_DDOT":0},{"OBJECT_NAME":"HAWK-5B","OBJECT_ID":"2022-057AA","EPOCH":"2026-04-25T16:49:42.508416","MEAN_MOTION":15.49460655,"ECCENTRICITY":0.0003882,"INCLINATION":97.6528,"RA_OF_ASC_NODE":270.4356,"ARG_OF_PERICENTER":242.7477,"MEAN_ANOMALY":117.3378,"EPHEMERIS_TYPE":0,"CLASSIFICATION_TYPE":"U","NORAD_CAT_ID":52756,"ELEMENT_SET_NO":999,"REV_AT_EPOCH":21821,"BSTAR":0.00036766,"MEAN_MOTION_DOT":0.00020147,"MEAN_MOTION_DDOT":0},{"OBJECT_NAME":"HAWK-5A","OBJECT_ID":"2022-057AB","EPOCH":"2026-04-25T09:04:22.010592","MEAN_MOTION":15.49448052,"ECCENTRICITY":0.0004063,"INCLINATION":97.6525,"RA_OF_ASC_NODE":270.9264,"ARG_OF_PERICENTER":246.6977,"MEAN_ANOMALY":113.3845,"EPHEMERIS_TYPE":0,"CLASSIFICATION_TYPE":"U","NORAD_CAT_ID":52757,"ELEMENT_SET_NO":999,"REV_AT_EPOCH":21816,"BSTAR":0.00038371,"MEAN_MOTION_DOT":0.00021024,"MEAN_MOTION_DDOT":0},{"OBJECT_NAME":"HAWK-6B","OBJECT_ID":"2023-011A","EPOCH":"2026-04-25T18:42:18.348192","MEAN_MOTION":15.2244698,"ECCENTRICITY":0.0002828,"INCLINATION":40.4993,"RA_OF_ASC_NODE":297.638,"ARG_OF_PERICENTER":354.1039,"MEAN_ANOMALY":5.9736,"EPHEMERIS_TYPE":0,"CLASSIFICATION_TYPE":"U","NORAD_CAT_ID":55324,"ELEMENT_SET_NO":999,"REV_AT_EPOCH":17985,"BSTAR":0.00025315,"MEAN_MOTION_DOT":5.79e-5,"MEAN_MOTION_DDOT":0},{"OBJECT_NAME":"HAWK-6C","OBJECT_ID":"2023-011C","EPOCH":"2026-04-25T20:15:51.674976","MEAN_MOTION":15.22450942,"ECCENTRICITY":0.0003438,"INCLINATION":40.4983,"RA_OF_ASC_NODE":294.1038,"ARG_OF_PERICENTER":342.1905,"MEAN_ANOMALY":17.8784,"EPHEMERIS_TYPE":0,"CLASSIFICATION_TYPE":"U","NORAD_CAT_ID":55326,"ELEMENT_SET_NO":999,"REV_AT_EPOCH":17987,"BSTAR":0.00025474,"MEAN_MOTION_DOT":5.828e-5,"MEAN_MOTION_DDOT":0},{"OBJECT_NAME":"HAWK-6A","OBJECT_ID":"2023-011D","EPOCH":"2026-04-25T20:15:54.526176","MEAN_MOTION":15.22449836,"ECCENTRICITY":0.0003166,"INCLINATION":40.4992,"RA_OF_ASC_NODE":295.7227,"ARG_OF_PERICENTER":338.8536,"MEAN_ANOMALY":21.2142,"EPHEMERIS_TYPE":0,"CLASSIFICATION_TYPE":"U","NORAD_CAT_ID":55327,"ELEMENT_SET_NO":999,"REV_AT_EPOCH":17987,"BSTAR":0.00025471,"MEAN_MOTION_DOT":5.827e-5,"MEAN_MOTION_DDOT":0}]
